{
  "norad_id": 49093,
  "name": "ONEWEB-0305",
  "history": [
    {
      "epoch": "2026-03-28T19:42:24.992640Z",
      "apogee_km": 1194.8534363002082,
      "perigee_km": 1192.5520513284737,
      "latitude_deg": -1.7747850052746944e-05,
      "longitude_deg": -100.03250790310548,
      "height_km": 1196.190155949564,
      "semi_major_axis_km": 7571.839743814341,
      "eccentricity": 0.00015197,
      "inclination_deg": 87.9186,
      "raan_deg": 21.8077,
      "arg_perigee_deg": 69.1933,
      "mean_anomaly_deg": 290.9361,
      "mean_motion_rev_day": 13.17651745
    },
    {
      "epoch": "2026-03-29T04:49:09.388704Z",
      "apogee_km": 1194.863186461378,
      "perigee_km": 1192.54317463006,
      "latitude_deg": 2.939330581252346e-05,
      "longitude_deg": 122.83308004638904,
      "height_km": 1196.2089173498691,
      "semi_major_axis_km": 7571.840180545719,
      "eccentricity": 0.0001532,
      "inclination_deg": 87.9186,
      "raan_deg": 21.7325,
      "arg_perigee_deg": 70.3343,
      "mean_anomaly_deg": 289.7954,
      "mean_motion_rev_day": 13.17651631
    },
    {
      "epoch": "2026-03-30T04:30:40.730688Z",
      "apogee_km": 1194.8574024952295,
      "perigee_km": 1192.5510196623345,
      "latitude_deg": 4.196386312549431e-05,
      "longitude_deg": 126.28369203826735,
      "height_km": 1196.2281750868208,
      "semi_major_axis_km": 7571.841211078781,
      "eccentricity": 0.0001523,
      "inclination_deg": 87.9188,
      "raan_deg": 21.5367,
      "arg_perigee_deg": 71.1726,
      "mean_anomaly_deg": 288.9571,
      "mean_motion_rev_day": 13.17651362
    },
    {
      "epoch": "2026-03-30T06:20:01.597632Z",
      "apogee_km": 1194.8551771019338,
      "perigee_km": 1192.552731704519,
      "latitude_deg": -3.352509347560279e-05,
      "longitude_deg": 98.85679789915085,
      "height_km": 1196.2292004950937,
      "semi_major_axis_km": 7571.8409544032265,
      "eccentricity": 0.00015204,
      "inclination_deg": 87.9188,
      "raan_deg": 21.5216,
      "arg_perigee_deg": 71.2058,
      "mean_anomaly_deg": 288.9238,
      "mean_motion_rev_day": 13.17651429
    },
    {
      "epoch": "2026-03-30T13:37:25.100832Z",
      "apogee_km": 1194.8506066247592,
      "perigee_km": 1192.5558847199072,
      "latitude_deg": 2.454714693898108e-05,
      "longitude_deg": -10.850713644355578,
      "height_km": 1196.2292567259553,
      "semi_major_axis_km": 7571.840245672333,
      "eccentricity": 0.00015153,
      "inclination_deg": 87.9188,
      "raan_deg": 21.4614,
      "arg_perigee_deg": 71.1805,
      "mean_anomaly_deg": 288.9491,
      "mean_motion_rev_day": 13.17651614
    },
    {
      "epoch": "2026-03-30T22:44:09.465792Z",
      "apogee_km": 1194.8487315485327,
      "perigee_km": 1192.5588554557607,
      "latitude_deg": -6.048982884734194e-05,
      "longitude_deg": -147.9851001125967,
      "height_km": 1196.2343403366142,
      "semi_major_axis_km": 7571.840793502146,
      "eccentricity": 0.00015121,
      "inclination_deg": 87.9189,
      "raan_deg": 21.3861,
      "arg_perigee_deg": 71.378,
      "mean_anomaly_deg": 288.7515,
      "mean_motion_rev_day": 13.17651471
    },
    {
      "epoch": "2026-03-31T20:36:19.946016Z",
      "apogee_km": 1194.8342923219152,
      "perigee_km": 1192.5733406541121,
      "latitude_deg": 1.3408258052863589e-05,
      "longitude_deg": -117.10771542214401,
      "height_km": 1196.2456636543861,
      "semi_major_axis_km": 7571.840816488014,
      "eccentricity": 0.0001493,
      "inclination_deg": 87.9189,
      "raan_deg": 21.2053,
      "arg_perigee_deg": 71.7341,
      "mean_anomaly_deg": 288.3953,
      "mean_motion_rev_day": 13.17651465
    }
  ]
}